{"type":"FeatureCollection","generated":"2026-07-06","features":[{"type":"Feature","geometry":{"type":"Polygon","coordinates":[[[-111.73521,33.48486],[-111.73578,33.48466],[-111.74429,33.48469],[-111.7529,33.48452],[-111.76032,33.48454],[-111.76036,33.48222],[-111.76185,33.48208],[-111.76185,33.48196],[-111.76193,33.48194],[-111.76195,33.48103],[-111.76594,33.48102],[-111.76593,33.48285],[-111.76528,33.48285],[-111.76527,33.48331],[-111.76593,33.48313],[-111.76593,33.48369],[-111.76766,33.48341],[-111.77028,33.48249],[-111.77109,33.48202],[-111.77563,33.48213],[-111.77692,33.4813],[-111.77692,33.48093],[-111.77314,33.48094],[-111.77314,33.48066],[-111.77187,33.48066],[-111.77078,33.47941],[-111.77029,33.47872],[-111.77039,33.47469],[-111.77274,33.47473],[-111.77186,33.47592],[-111.7715,33.47625],[-111.77116,33.47646],[-111.77125,33.47657],[-111.77522,33.47659],[-111.77588,33.47606],[-111.77878,33.473],[-111.77878,33.4728],[-111.7748,33.4728],[-111.7748,33.47248],[-111.77518,33.47198],[-111.77909,33.47198],[-111.77887,33.48096],[-111.7873,33.48091],[-111.78729,33.46626],[-111.80488,33.46643],[-111.81357,33.46647],[-111.8224,33.46649],[-111.82678,33.46638],[-111.82675,33.4625],[-111.83547,33.46245],[-111.8354,33.45882],[-111.83372,33.45883],[-111.83372,33.45871],[-111.83467,33.45809],[-111.83508,33.45704],[-111.83562,33.45586],[-111.83621,33.45508],[-111.83966,33.45507],[-111.83975,33.45144],[-111.8399,33.43521],[-111.83621,33.4352],[-111.8344,33.435],[-111.8335,33.43495],[-111.82677,33.43493],[-111.82566,33.43506],[-111.82383,33.4355],[-111.82267,33.43557],[-111.82285,33.42234],[-111.80529,33.4224],[-111.78815,33.42264],[-111.78826,33.41538],[-111.7883,33.40812],[-111.77113,33.40816],[-111.77107,33.41544],[-111.7537,33.41552],[-111.75357,33.43733],[-111.75334,33.45186],[-111.73603,33.45183],[-111.73572,33.4823],[-111.73568,33.48275],[-111.73521,33.48419],[-111.73521,33.48486]],[[-111.75408,33.47727],[-111.75369,33.47727],[-111.75381,33.47653],[-111.75378,33.47616],[-111.75366,33.4757],[-111.75732,33.47417],[-111.75955,33.47335],[-111.76179,33.47264],[-111.7617,33.47728],[-111.75408,33.47727]]]},"properties":{"DISTRICT":1}},{"type":"Feature","geometry":{"type":"MultiPolygon","coordinates":[[[[-111.7071,33.41825],[-111.70707,33.42233],[-111.71034,33.42233],[-111.71034,33.42194],[-111.70984,33.42194],[-111.70986,33.41855],[-111.71036,33.41847],[-111.71036,33.41825],[-111.7071,33.41825]]],[[[-111.68986,33.42206],[-111.68985,33.42276],[-111.69089,33.42276],[-111.6909,33.42206],[-111.68986,33.42206]]],[[[-111.70547,33.39254],[-111.7063,33.3939],[-111.68447,33.39398],[-111.68361,33.3939],[-111.68219,33.39346],[-111.68133,33.39334],[-111.67268,33.39333],[-111.66752,33.39339],[-111.6674,33.42242],[-111.67326,33.42244],[-111.68104,33.42289],[-111.68448,33.42292],[-111.68439,33.43027],[-111.68766,33.43027],[-111.68766,33.43005],[-111.6856,33.43005],[-111.6856,33.42875],[-111.68459,33.42875],[-111.68459,33.42826],[-111.68525,33.42826],[-111.68526,33.42654],[-111.68717,33.42654],[-111.68722,33.42307],[-111.68464,33.42307],[-111.68466,33.4207],[-111.68501,33.4207],[-111.68501,33.42023],[-111.68466,33.42024],[-111.68466,33.4194],[-111.68502,33.4194],[-111.68502,33.41926],[-111.68533,33.41925],[-111.68532,33.41878],[-111.68546,33.41878],[-111.68546,33.41795],[-111.68467,33.41796],[-111.68468,33.4168],[-111.68721,33.41679],[-111.6872,33.4189],[-111.6874,33.4189],[-111.68738,33.42277],[-111.68882,33.42276],[-111.68885,33.41851],[-111.6905,33.4185],[-111.6905,33.41843],[-111.69073,33.41843],[-111.69081,33.41854],[-111.69091,33.41854],[-111.69092,33.41752],[-111.68987,33.41753],[-111.68987,33.41692],[-111.69092,33.41692],[-111.69092,33.41645],[-111.69546,33.41644],[-111.69545,33.41795],[-111.69719,33.41794],[-111.69752,33.41785],[-111.69752,33.41752],[-111.70187,33.4175],[-111.70186,33.4183],[-111.70276,33.41801],[-111.70315,33.41744],[-111.70494,33.41694],[-111.70609,33.41633],[-111.70629,33.41634],[-111.70627,33.41804],[-111.71036,33.41803],[-111.71036,33.41746],[-111.71063,33.41746],[-111.71062,33.4179],[-111.71157,33.4179],[-111.71158,33.41746],[-111.71529,33.41744],[-111.71534,33.41791],[-111.71549,33.4183],[-111.71595,33.41898],[-111.71595,33.4192],[-111.71599,33.41923],[-111.7189,33.41922],[-111.71888,33.423],[-111.71891,33.423],[-111.71891,33.42366],[-111.71884,33.43011],[-111.71905,33.43011],[-111.71901,33.43736],[-111.7188,33.45185],[-111.75334,33.45186],[-111.75357,33.43733],[-111.7537,33.41552],[-111.77107,33.41544],[-111.77113,33.40816],[-111.77983,33.40813],[-111.77982,33.3936],[-111.77121,33.39363],[-111.77124,33.37889],[-111.76688,33.37891],[-111.76728,33.37894],[-111.76726,33.37924],[-111.72714,33.3794],[-111.72712,33.38078],[-111.72718,33.38123],[-111.72734,33.38181],[-111.72772,33.38278],[-111.72785,33.38349],[-111.72784,33.38486],[-111.72769,33.3858],[-111.72121,33.38583],[-111.71974,33.38575],[-111.7196,33.38477],[-111.71924,33.38477],[-111.71909,33.38575],[-111.7181,33.38581],[-111.71813,33.38261],[-111.71805,33.38261],[-111.71806,33.38102],[-111.71815,33.38102],[-111.71816,33.37943],[-111.69722,33.37949],[-111.70132,33.38603],[-111.70234,33.38774],[-111.70264,33.38873],[-111.70276,33.39013],[-111.70297,33.39064],[-111.70325,33.39098],[-111.70351,33.39118],[-111.70459,33.3917],[-111.7049,33.3919],[-111.70517,33.39215],[-111.70547,33.39254]],[[-111.69488,33.40835],[-111.68769,33.40839],[-111.68768,33.40693],[-111.68654,33.40693],[-111.68656,33.40536],[-111.68628,33.40536],[-111.6863,33.4044],[-111.68561,33.40439],[-111.68562,33.40369],[-111.6848,33.40368],[-111.68492,33.39412],[-111.70657,33.39405],[-111.70928,33.39832],[-111.70959,33.39891],[-111.70982,33.39954],[-111.71077,33.40343],[-111.71073,33.40824],[-111.69637,33.40832],[-111.69637,33.40828],[-111.69488,33.40829],[-111.69488,33.40835]]]]},"properties":{"DISTRICT":2}},{"type":"Feature","geometry":{"type":"Polygon","coordinates":[[[-111.84865,33.39321],[-111.84837,33.40774],[-111.85669,33.40763],[-111.85662,33.41176],[-111.85664,33.41376],[-111.85662,33.41491],[-111.85656,33.41491],[-111.85644,33.42214],[-111.83994,33.42238],[-111.83997,33.42601],[-111.83989,33.43576],[-111.83975,33.45144],[-111.83966,33.45507],[-111.84814,33.45498],[-111.84799,33.45124],[-111.85219,33.45123],[-111.85216,33.44753],[-111.85271,33.44689],[-111.85316,33.44649],[-111.85453,33.44556],[-111.85452,33.44413],[-111.85646,33.4441],[-111.85646,33.44398],[-111.86097,33.444],[-111.86093,33.44288],[-111.85646,33.44286],[-111.85639,33.43666],[-111.86517,33.4367],[-111.86528,33.44036],[-111.8655,33.44036],[-111.86587,33.43995],[-111.86674,33.43875],[-111.86737,33.43799],[-111.86764,33.43777],[-111.86825,33.43742],[-111.86935,33.43685],[-111.86934,33.43672],[-111.87413,33.43674],[-111.87433,33.4404],[-111.89206,33.44043],[-111.89202,33.43676],[-111.89177,33.4293],[-111.88272,33.42937],[-111.88289,33.42219],[-111.87702,33.42221],[-111.87814,33.42029],[-111.87874,33.41968],[-111.88201,33.41725],[-111.88366,33.41566],[-111.8846,33.41467],[-111.88756,33.41182],[-111.88815,33.41105],[-111.88855,33.41039],[-111.88869,33.41003],[-111.8887,33.40907],[-111.88852,33.40838],[-111.88756,33.40626],[-111.88599,33.40245],[-111.88481,33.40027],[-111.88423,33.39931],[-111.88048,33.39411],[-111.88005,33.39346],[-111.87994,33.39318],[-111.8796,33.388],[-111.87962,33.38769],[-111.87992,33.38701],[-111.88028,33.38645],[-111.88084,33.38578],[-111.88164,33.38577],[-111.88436,33.38507],[-111.88679,33.38467],[-111.88739,33.38448],[-111.89201,33.38167],[-111.89242,33.38124],[-111.89297,33.38035],[-111.89313,33.37993],[-111.89324,33.3794],[-111.89329,33.37845],[-111.89321,33.37845],[-111.8933,33.37759],[-111.89343,33.37736],[-111.8935,33.37696],[-111.89409,33.36448],[-111.8943,33.36383],[-111.89443,33.36301],[-111.89434,33.35685],[-111.88542,33.35686],[-111.87636,33.35694],[-111.8591,33.35713],[-111.8591,33.35721],[-111.85694,33.3572],[-111.85694,33.35711],[-111.85054,33.35704],[-111.85054,33.35709],[-111.842,33.35706],[-111.84202,33.36422],[-111.84247,33.37645],[-111.84229,33.37712],[-111.84201,33.37771],[-111.8414,33.3786],[-111.84119,33.3786],[-111.84107,33.37878],[-111.84875,33.37876],[-111.84865,33.39321]],[[-111.8526,33.44439],[-111.85261,33.44415],[-111.85317,33.44414],[-111.85317,33.44469],[-111.8526,33.4447],[-111.8526,33.44439]]]},"properties":{"DISTRICT":3}},{"type":"Feature","geometry":{"type":"Polygon","coordinates":[[[-111.7882,33.41942],[-111.78815,33.42264],[-111.80529,33.4224],[-111.82285,33.42234],[-111.82267,33.43557],[-111.82383,33.4355],[-111.82566,33.43506],[-111.82677,33.43493],[-111.8335,33.43495],[-111.8344,33.435],[-111.83621,33.4352],[-111.8399,33.43521],[-111.83997,33.42601],[-111.83994,33.42238],[-111.85644,33.42214],[-111.85656,33.41491],[-111.85662,33.41491],[-111.85664,33.41376],[-111.85662,33.41176],[-111.85669,33.40763],[-111.84837,33.40774],[-111.84865,33.39321],[-111.84875,33.37876],[-111.84107,33.37878],[-111.84119,33.3786],[-111.83153,33.37861],[-111.77124,33.37889],[-111.77121,33.39363],[-111.77982,33.3936],[-111.77983,33.40813],[-111.7883,33.40812],[-111.7882,33.41942]],[[-111.83977,33.38535],[-111.838,33.38536],[-111.838,33.38545],[-111.83522,33.38546],[-111.83522,33.38439],[-111.83524,33.38434],[-111.83592,33.38448],[-111.83828,33.38448],[-111.83908,33.38433],[-111.83986,33.38432],[-111.83977,33.38535]]]},"properties":{"DISTRICT":4}},{"type":"Feature","geometry":{"type":"Polygon","coordinates":[[[-111.68718,33.31024],[-111.68799,33.3086],[-111.68825,33.30797],[-111.68841,33.30733],[-111.6865,33.30734],[-111.6865,33.30704],[-111.68853,33.30703],[-111.68886,33.3059],[-111.68893,33.3053],[-111.68883,33.3047],[-111.68859,33.30414],[-111.68829,33.30376],[-111.68709,33.30255],[-111.68676,33.30199],[-111.68659,33.30149],[-111.6864,33.28987],[-111.6863,33.28895],[-111.66888,33.27812],[-111.6522,33.27805],[-111.63514,33.2779],[-111.63515,33.2776],[-111.63458,33.27759],[-111.63459,33.27788],[-111.63464,33.27789],[-111.61768,33.27771],[-111.60035,33.2776],[-111.60034,33.27744],[-111.5833,33.27735],[-111.58352,33.30079],[-111.58334,33.30079],[-111.58339,33.30616],[-111.59487,33.30626],[-111.59492,33.31208],[-111.59215,33.31205],[-111.59225,33.31905],[-111.59103,33.31904],[-111.59105,33.321],[-111.5837,33.32094],[-111.58426,33.37882],[-111.64828,33.37918],[-111.64777,33.38682],[-111.65141,33.38676],[-111.66751,33.38679],[-111.66752,33.39339],[-111.67268,33.39333],[-111.68133,33.39334],[-111.68219,33.39346],[-111.68361,33.3939],[-111.68447,33.39398],[-111.7063,33.3939],[-111.7054,33.39244],[-111.70509,33.39206],[-111.70459,33.3917],[-111.70351,33.39118],[-111.70325,33.39098],[-111.70297,33.39064],[-111.70276,33.39013],[-111.70264,33.38873],[-111.70234,33.38774],[-111.70132,33.38603],[-111.69722,33.37949],[-111.6881,33.37955],[-111.68785,33.36501],[-111.68778,33.36501],[-111.68774,33.3614],[-111.68743,33.3614],[-111.68708,33.34333],[-111.68712,33.34333],[-111.68687,33.32888],[-111.68718,33.32888],[-111.68706,33.32165],[-111.68677,33.32165],[-111.68661,33.3123],[-111.68663,33.31186],[-111.68674,33.31129],[-111.68688,33.31087],[-111.68718,33.31024]],[[-111.66196,33.3505],[-111.65965,33.35048],[-111.65965,33.35043],[-111.66196,33.35045],[-111.66196,33.3505]],[[-111.65744,33.35046],[-111.65322,33.35043],[-111.65322,33.35038],[-111.65744,33.35041],[-111.65744,33.35046]],[[-111.6707,33.35007],[-111.67042,33.35008],[-111.67031,33.34501],[-111.66607,33.34497],[-111.66603,33.34317],[-111.66169,33.34314],[-111.66155,33.33582],[-111.67034,33.3359],[-111.67034,33.33599],[-111.67048,33.33599],[-111.67053,33.34003],[-111.6705,33.34003],[-111.6707,33.35007]],[[-111.6486,33.33943],[-111.64865,33.34303],[-111.64435,33.343],[-111.6444,33.34193],[-111.6445,33.34114],[-111.64474,33.34009],[-111.64501,33.3394],[-111.6486,33.33943]],[[-111.64476,33.33687],[-111.64424,33.33686],[-111.64423,33.33568],[-111.64547,33.33569],[-111.64511,33.33624],[-111.64476,33.33687]],[[-111.64695,33.33636],[-111.64753,33.33571],[-111.64854,33.33572],[-111.64855,33.33638],[-111.64695,33.33636]],[[-111.60086,33.3209],[-111.60087,33.32105],[-111.60074,33.32105],[-111.60074,33.32094],[-111.59966,33.32093],[-111.59966,33.32089],[-111.60086,33.3209]],[[-111.63521,33.314],[-111.6353,33.31875],[-111.63326,33.31831],[-111.62765,33.31183],[-111.62177,33.30628],[-111.6207,33.30531],[-111.6192,33.30429],[-111.61651,33.3026],[-111.61518,33.30186],[-111.61429,33.30149],[-111.61296,33.30102],[-111.6106,33.30044],[-111.60886,33.30012],[-111.60711,33.29992],[-111.60499,33.29994],[-111.60503,33.30469],[-111.60277,33.30468],[-111.60275,33.30286],[-111.60074,33.30284],[-111.60069,33.29814],[-111.60081,33.29814],[-111.60077,33.2957],[-111.60082,33.29566],[-111.60472,33.2957],[-111.60476,33.29574],[-111.60478,33.29813],[-111.60468,33.29831],[-111.60471,33.2984],[-111.6048,33.29849],[-111.60496,33.29849],[-111.60506,33.2984],[-111.60506,33.29853],[-111.60792,33.29881],[-111.60939,33.29899],[-111.61005,33.29913],[-111.61389,33.3001],[-111.61566,33.30078],[-111.61708,33.3014],[-111.61715,33.30103],[-111.61795,33.30104],[-111.61801,33.30147],[-111.61946,33.30205],[-111.62179,33.30319],[-111.62353,33.3048],[-111.62536,33.30404],[-111.62557,33.30438],[-111.62631,33.30404],[-111.62694,33.30383],[-111.62744,33.30375],[-111.62811,33.30373],[-111.62893,33.30386],[-111.62957,33.30409],[-111.63001,33.30432],[-111.63117,33.30509],[-111.63164,33.30532],[-111.63213,33.30549],[-111.63316,33.30569],[-111.635,33.30567],[-111.63506,33.30678],[-111.63521,33.314]],[[-111.63179,33.29622],[-111.63092,33.29548],[-111.63086,33.29236],[-111.63476,33.29239],[-111.63487,33.29897],[-111.63457,33.29897],[-111.63457,33.29877],[-111.63473,33.29877],[-111.63179,33.29622]],[[-111.63464,33.30159],[-111.63494,33.30159],[-111.63494,33.3018],[-111.63464,33.3018],[-111.63464,33.30159]],[[-111.6347,33.30443],[-111.63496,33.30443],[-111.63497,33.30463],[-111.6347,33.30464],[-111.6347,33.30443]]]},"properties":{"DISTRICT":6}},{"type":"Feature","geometry":{"type":"MultiPolygon","coordinates":[[[[-111.6841,33.50259],[-111.68409,33.50382],[-111.68526,33.50414],[-111.6869,33.50618],[-111.6866,33.50782],[-111.68935,33.50912],[-111.69208,33.51012],[-111.69336,33.5123],[-111.6967,33.51126],[-111.69719,33.51106],[-111.69763,33.51079],[-111.69903,33.50953],[-111.70031,33.5086],[-111.70163,33.50781],[-111.70258,33.50738],[-111.70421,33.50695],[-111.7048,33.50664],[-111.70665,33.50602],[-111.70839,33.50566],[-111.70954,33.50523],[-111.71014,33.50494],[-111.71472,33.50117],[-111.71663,33.49819],[-111.71717,33.49768],[-111.7195,33.49614],[-111.71951,33.49544],[-111.71936,33.49459],[-111.7197,33.49396],[-111.72002,33.49379],[-111.723,33.49311],[-111.7237,33.49163],[-111.72341,33.49106],[-111.72339,33.4905],[-111.72371,33.49007],[-111.72532,33.48913],[-111.72614,33.4879],[-111.72642,33.4869],[-111.72673,33.4865],[-111.72735,33.4861],[-111.72822,33.48582],[-111.72904,33.48608],[-111.72971,33.48683],[-111.73146,33.48786],[-111.73224,33.4876],[-111.73281,33.48644],[-111.73506,33.48492],[-111.73521,33.48486],[-111.73521,33.48419],[-111.73568,33.48275],[-111.73572,33.4823],[-111.73603,33.45183],[-111.7188,33.45185],[-111.71901,33.43736],[-111.71905,33.43011],[-111.70155,33.43014],[-111.70154,33.43251],[-111.6976,33.43252],[-111.6976,33.43278],[-111.6974,33.43278],[-111.69741,33.43253],[-111.69608,33.43253],[-111.69608,33.43226],[-111.69582,33.43226],[-111.69582,33.43253],[-111.69319,33.43253],[-111.69319,33.43286],[-111.69295,33.43286],[-111.69296,33.43187],[-111.68458,33.43188],[-111.6846,33.43027],[-111.68439,33.43027],[-111.68448,33.42292],[-111.68104,33.42289],[-111.67326,33.42244],[-111.6674,33.42242],[-111.66751,33.38679],[-111.65141,33.38676],[-111.64777,33.38682],[-111.64828,33.37918],[-111.58426,33.37882],[-111.58426,33.37895],[-111.58082,33.37893],[-111.58084,33.40792],[-111.58079,33.40792],[-111.58079,33.41644],[-111.58282,33.41644],[-111.58282,33.41603],[-111.58486,33.41603],[-111.58485,33.42215],[-111.58084,33.42215],[-111.58083,33.44408],[-111.59795,33.44409],[-111.59795,33.45119],[-111.62407,33.4512],[-111.62407,33.4515],[-111.62394,33.4515],[-111.6239,33.46603],[-111.6324,33.46608],[-111.63241,33.48059],[-111.63257,33.48059],[-111.63258,33.4951],[-111.64987,33.49516],[-111.66723,33.49529],[-111.6841,33.49536],[-111.6841,33.50259]],[[-111.64231,33.48061],[-111.63244,33.48056],[-111.63245,33.45862],[-111.63799,33.45863],[-111.63798,33.46225],[-111.637,33.46225],[-111.63699,33.46343],[-111.63753,33.46388],[-111.63884,33.46515],[-111.63937,33.46549],[-111.64003,33.46575],[-111.64059,33.46588],[-111.64109,33.46593],[-111.64546,33.46596],[-111.64547,33.46421],[-111.64447,33.46421],[-111.64447,33.46234],[-111.64386,33.46233],[-111.64386,33.46227],[-111.64339,33.46226],[-111.64341,33.45864],[-111.64882,33.45866],[-111.64881,33.45944],[-111.64898,33.45949],[-111.64976,33.4595],[-111.64976,33.45866],[-111.66287,33.45868],[-111.6629,33.45158],[-111.66507,33.45159],[-111.66506,33.45325],[-111.66736,33.45325],[-111.66733,33.45858],[-111.67153,33.45858],[-111.67152,33.46232],[-111.66936,33.46232],[-111.66934,33.46429],[-111.66731,33.46428],[-111.66731,33.46435],[-111.66654,33.46434],[-111.66654,33.46509],[-111.66699,33.46522],[-111.66731,33.46522],[-111.6673,33.46642],[-111.66724,33.46642],[-111.66726,33.4735],[-111.65853,33.47345],[-111.65854,33.47709],[-111.65745,33.47708],[-111.65745,33.47889],[-111.65637,33.47888],[-111.65636,33.47707],[-111.65421,33.47706],[-111.6542,33.47887],[-111.65001,33.47885],[-111.65001,33.47704],[-111.6369,33.47698],[-111.6369,33.4788],[-111.64083,33.47882],[-111.64083,33.47875],[-111.64339,33.47876],[-111.64339,33.4789],[-111.64231,33.47889],[-111.64231,33.48061]],[[-111.6261,33.45121],[-111.62502,33.45121],[-111.62502,33.45136],[-111.6241,33.45135],[-111.6241,33.45118],[-111.6234,33.45118],[-111.6234,33.45041],[-111.62286,33.45041],[-111.62286,33.45118],[-111.61961,33.45117],[-111.61961,33.44773],[-111.62394,33.44773],[-111.62394,33.44954],[-111.62611,33.44955],[-111.6261,33.45121]],[[-111.61541,33.45117],[-111.59798,33.45117],[-111.59799,33.44406],[-111.58086,33.44405],[-111.58087,33.43672],[-111.58174,33.43672],[-111.58174,33.43501],[-111.58087,33.43501],[-111.58087,33.42947],[-111.58174,33.42947],[-111.58174,33.43139],[-111.58715,33.43139],[-111.58715,33.4332],[-111.58498,33.4332],[-111.58499,33.43501],[-111.5839,33.43501],[-111.5839,33.43668],[-111.58823,33.43668],[-111.58823,33.43139],[-111.58918,33.43139],[-111.58918,33.42947],[-111.59779,33.42947],[-111.59776,33.42871],[-111.59755,33.42763],[-111.59752,33.42725],[-111.5978,33.4254],[-111.59779,33.42248],[-111.59374,33.42248],[-111.59375,33.42604],[-111.58918,33.42604],[-111.58918,33.42248],[-111.58087,33.42248],[-111.58087,33.42217],[-111.58488,33.42217],[-111.58489,33.416],[-111.58279,33.416],[-111.58279,33.41642],[-111.58082,33.41641],[-111.58087,33.39701],[-111.5849,33.39701],[-111.5849,33.40067],[-111.58921,33.40067],[-111.5892,33.40427],[-111.59358,33.40427],[-111.59357,33.40767],[-111.59783,33.40767],[-111.59784,33.40411],[-111.59959,33.40409],[-111.60016,33.40402],[-111.60077,33.40389],[-111.60087,33.40396],[-111.60087,33.40445],[-111.60024,33.40459],[-111.60028,33.40534],[-111.6004,33.40568],[-111.60054,33.40588],[-111.6022,33.40496],[-111.60245,33.40514],[-111.60245,33.40765],[-111.59819,33.40765],[-111.59818,33.41154],[-111.59041,33.41153],[-111.59041,33.41493],[-111.60667,33.41494],[-111.60669,33.40767],[-111.60682,33.40767],[-111.6068,33.41494],[-111.60788,33.41494],[-111.60786,33.42218],[-111.6155,33.42218],[-111.61549,33.42948],[-111.61105,33.42948],[-111.61105,33.43321],[-111.61549,33.43321],[-111.61552,33.43666],[-111.61548,33.43666],[-111.61548,33.43699],[-111.61543,33.43699],[-111.61544,33.4373],[-111.61556,33.43793],[-111.61595,33.43916],[-111.61594,33.44047],[-111.61599,33.44047],[-111.61596,33.4438],[-111.61586,33.44441],[-111.61549,33.44554],[-111.61541,33.44602],[-111.61541,33.45117]],[[-111.61905,33.39348],[-111.6154,33.39347],[-111.6154,33.39317],[-111.62422,33.39318],[-111.62421,33.39687],[-111.63259,33.39689],[-111.63259,33.39607],[-111.63395,33.39607],[-111.63396,33.39428],[-111.6326,33.39427],[-111.6326,33.38609],[-111.63296,33.38609],[-111.63296,33.39319],[-111.6416,33.3932],[-111.64158,33.39871],[-111.64806,33.39872],[-111.64806,33.40051],[-111.64995,33.40051],[-111.64994,33.40434],[-111.64616,33.40432],[-111.64569,33.40421],[-111.64533,33.40404],[-111.64508,33.40425],[-111.64408,33.40425],[-111.64408,33.40434],[-111.64368,33.40434],[-111.64368,33.40419],[-111.64305,33.40432],[-111.63718,33.40431],[-111.63717,33.40801],[-111.63697,33.40801],[-111.63696,33.4114],[-111.63716,33.4114],[-111.63715,33.41149],[-111.63706,33.41149],[-111.63705,33.41311],[-111.63715,33.41311],[-111.63715,33.41496],[-111.64084,33.41498],[-111.64084,33.41329],[-111.64138,33.41329],[-111.64141,33.40804],[-111.64883,33.40806],[-111.64882,33.411],[-111.64997,33.41101],[-111.64999,33.40803],[-111.65296,33.40804],[-111.65296,33.40843],[-111.65354,33.40843],[-111.65354,33.40804],[-111.65888,33.40805],[-111.65888,33.40822],[-111.65927,33.40822],[-111.65927,33.40805],[-111.66049,33.40805],[-111.66047,33.41504],[-111.66725,33.41505],[-111.66723,33.41867],[-111.66516,33.41866],[-111.66517,33.41784],[-111.66307,33.41783],[-111.66309,33.41557],[-111.65883,33.41556],[-111.65879,33.42225],[-111.64147,33.42226],[-111.64147,33.42222],[-111.63699,33.42222],[-111.63702,33.41928],[-111.63692,33.41928],[-111.63693,33.41701],[-111.6329,33.417],[-111.6329,33.41552],[-111.62836,33.41551],[-111.62834,33.41864],[-111.63289,33.41865],[-111.63289,33.41927],[-111.63278,33.41927],[-111.63277,33.42123],[-111.63104,33.42108],[-111.63103,33.42221],[-111.6315,33.42221],[-111.6315,33.42417],[-111.63284,33.42417],[-111.63284,33.42542],[-111.63369,33.42593],[-111.63502,33.42593],[-111.63496,33.42574],[-111.63495,33.42419],[-111.63699,33.4242],[-111.63698,33.4309],[-111.63598,33.43089],[-111.63598,33.43129],[-111.63698,33.4313],[-111.63698,33.43238],[-111.63282,33.43237],[-111.63283,33.42972],[-111.6241,33.42971],[-111.62409,33.43701],[-111.61552,33.43699],[-111.61552,33.43669],[-111.61747,33.43669],[-111.61747,33.4351],[-111.61553,33.4351],[-111.61553,33.42948],[-111.61689,33.42948],[-111.61689,33.42926],[-111.61667,33.42892],[-111.61665,33.4288],[-111.61691,33.42826],[-111.61775,33.42709],[-111.61801,33.42683],[-111.61827,33.42645],[-111.6179,33.42628],[-111.61757,33.42629],[-111.61757,33.42605],[-111.61553,33.42604],[-111.61553,33.42216],[-111.61229,33.42215],[-111.61229,33.42142],[-111.61099,33.42142],[-111.61099,33.41923],[-111.6116,33.41928],[-111.61173,33.41903],[-111.61173,33.4187],[-111.60882,33.41871],[-111.60882,33.41962],[-111.60791,33.41961],[-111.60792,33.41491],[-111.60683,33.41491],[-111.60685,33.40765],[-111.61558,33.40765],[-111.61559,33.40411],[-111.61953,33.40412],[-111.61962,33.40405],[-111.61963,33.40047],[-111.62388,33.40047],[-111.62389,33.39916],[-111.61903,33.39915],[-111.61905,33.39348]],[[-111.59349,33.39346],[-111.58087,33.39345],[-111.58085,33.37896],[-111.59819,33.37906],[-111.59819,33.38338],[-111.59797,33.38387],[-111.59785,33.38438],[-111.59785,33.3884],[-111.59777,33.3877],[-111.59349,33.3877],[-111.59349,33.39346]],[[-111.63281,33.43816],[-111.63698,33.43816],[-111.63698,33.43868],[-111.63914,33.43869],[-111.63913,33.44058],[-111.6328,33.44058],[-111.63281,33.43816]],[[-111.63153,33.44423],[-111.63261,33.44423],[-111.6326,33.44956],[-111.63009,33.44956],[-111.63055,33.44865],[-111.63055,33.44774],[-111.62719,33.44774],[-111.6272,33.44422],[-111.63052,33.44423],[-111.63052,33.44502],[-111.63152,33.44503],[-111.63153,33.44423]]],[[[-111.63924,33.39353],[-111.63923,33.39428],[-111.64133,33.39429],[-111.64133,33.39359],[-111.6413,33.39354],[-111.63924,33.39353]]],[[[-111.63448,33.3935],[-111.63448,33.39428],[-111.63607,33.39428],[-111.63608,33.3935],[-111.63448,33.3935]]],[[[-111.6408,33.39608],[-111.6408,33.39691],[-111.6413,33.3969],[-111.64133,33.39608],[-111.6408,33.39608]]],[[[-111.63869,33.39608],[-111.63869,33.39691],[-111.64028,33.39691],[-111.64028,33.39608],[-111.63869,33.39608]]],[[[-111.63703,33.39928],[-111.63718,33.39965],[-111.63717,33.40049],[-111.63971,33.4005],[-111.63975,33.40025],[-111.64132,33.39752],[-111.64132,33.39706],[-111.63609,33.39706],[-111.6361,33.39777],[-111.63629,33.39777],[-111.63629,33.39816],[-111.63566,33.39848],[-111.6361,33.39909],[-111.63649,33.39889],[-111.63667,33.39914],[-111.63686,33.39904],[-111.63703,33.39928]]],[[[-111.61273,33.40798],[-111.6129,33.40845],[-111.61518,33.40846],[-111.61518,33.40797],[-111.61273,33.40798]]],[[[-111.60916,33.40793],[-111.60916,33.40844],[-111.61092,33.40845],[-111.61092,33.40793],[-111.60916,33.40793]]],[[[-111.65886,33.41312],[-111.65886,33.41353],[-111.65906,33.41354],[-111.65906,33.41312],[-111.65886,33.41312]]],[[[-111.62077,33.41328],[-111.62076,33.41495],[-111.62185,33.41495],[-111.62185,33.41328],[-111.62077,33.41328]]],[[[-111.61622,33.41697],[-111.61858,33.41793],[-111.6186,33.4155],[-111.61751,33.41549],[-111.61751,33.41679],[-111.61622,33.41678],[-111.61622,33.41697]]],[[[-111.59532,33.42044],[-111.59772,33.42045],[-111.59777,33.42041],[-111.59777,33.41972],[-111.59772,33.41967],[-111.59721,33.41967],[-111.59721,33.4196],[-111.59527,33.4196],[-111.59532,33.42044]]],[[[-111.61856,33.4305],[-111.61856,33.43092],[-111.61956,33.43092],[-111.61956,33.4305],[-111.61856,33.4305]]],[[[-111.59818,33.42968],[-111.59818,33.43321],[-111.6023,33.43321],[-111.6023,33.42968],[-111.59818,33.42968]]],[[[-111.6218,33.43577],[-111.6218,33.4367],[-111.62227,33.4367],[-111.62226,33.4363],[-111.62242,33.43592],[-111.62241,33.43576],[-111.6218,33.43577]]],[[[-111.61971,33.4359],[-111.61971,33.43666],[-111.61976,33.4367],[-111.62072,33.4367],[-111.62072,33.4359],[-111.61971,33.4359]]],[[[-111.6363,33.43934],[-111.6366,33.43934],[-111.63651,33.43908],[-111.63638,33.43905],[-111.6363,33.43934]]],[[[-111.61313,33.43702],[-111.61312,33.44047],[-111.61565,33.44047],[-111.61565,33.43962],[-111.61561,33.43921],[-111.61518,33.4378],[-111.61509,33.43706],[-111.61504,33.43702],[-111.61313,33.43702]]],[[[-111.61041,33.44047],[-111.61256,33.44047],[-111.61257,33.437],[-111.61042,33.43699],[-111.61041,33.44047]]],[[[-111.66505,33.45597],[-111.66708,33.45598],[-111.66709,33.45507],[-111.66505,33.45506],[-111.66505,33.45597]]],[[[-111.6551,33.46237],[-111.6551,33.46325],[-111.6556,33.46325],[-111.6556,33.46237],[-111.6551,33.46237]]],[[[-111.66145,33.46419],[-111.66271,33.46419],[-111.66275,33.46414],[-111.66275,33.46374],[-111.66196,33.46374],[-111.66196,33.46329],[-111.66145,33.46329],[-111.66145,33.46419]]],[[[-111.64603,33.46603],[-111.64987,33.46605],[-111.64988,33.4641],[-111.64791,33.46409],[-111.64791,33.46235],[-111.64564,33.46234],[-111.64563,33.46498],[-111.64609,33.46498],[-111.64609,33.46536],[-111.64603,33.46536],[-111.64603,33.46603]]],[[[-111.66655,33.46987],[-111.66705,33.46987],[-111.66704,33.46806],[-111.66654,33.46805],[-111.66655,33.46987]]],[[[-111.6661,33.47168],[-111.66706,33.47167],[-111.66706,33.47122],[-111.6661,33.47121],[-111.6661,33.47168]]],[[[-111.65056,33.47192],[-111.65076,33.47219],[-111.6509,33.47251],[-111.65095,33.47251],[-111.65095,33.4716],[-111.65,33.47159],[-111.65,33.47186],[-111.65038,33.47186],[-111.65056,33.47192]]],[[[-111.6369,33.47286],[-111.6359,33.47286],[-111.6359,33.47335],[-111.63906,33.47336],[-111.63905,33.47155],[-111.6369,33.47154],[-111.6369,33.47286]]]]},"properties":{"DISTRICT":5}}]}